CTC1_L_00383001-01
1 57154U 23437UA  26070.40835648  .00000000  00000+0  00000-0 0  9993
2 57154  40.0000   0.0000 0000000   0.0000   0.0000 13.03091871    12
CTC1_L_00383001-02
1 57155U 22082OY  26070.40835648  .00000000  00000+0  00000-0 0  9999
2 57155  40.0000   0.0000 0000000   0.0000  90.0000 13.03091871    12
CTC1_L_00383001-03
1 57156U 22061CZ  26070.40835648  .00000000  00000+0  00000-0 0  9997
2 57156  40.0000   0.0000 0000000   0.0000 180.0000 13.03091871    13
CTC1_L_00383001-04
1 57157U 22754FU  26070.40835648  .00000000  00000+0  00000-0 0  9997
2 57157  40.0000   0.0000 0000000   0.0000 270.0000 13.03091871    14
CTC1_L_00383002-01
1 57158U 26486NI  26070.40835648  .00000000  00000+0  00000-0 0  9994
2 57158  40.0000  12.0000 0000000   0.0000  12.0000 13.03091871    12
CTC1_L_00383002-02
1 57159U 23018SH  26070.40835648  .00000000  00000+0  00000-0 0  9993
2 57159  40.0000  12.0000 0000000   0.0000 102.0000 13.03091871    13
CTC1_L_00383002-03
1 57160U 23976HV  26070.40835648  .00000000  00000+0  00000-0 0  9998
2 57160  40.0000  12.0000 0000000   0.0000 192.0000 13.03091871    14
CTC1_L_00383002-04
1 57161U 24695FC  26070.40835648  .00000000  00000+0  00000-0 0  9998
2 57161  40.0000  12.0000 0000000   0.0000 282.0000 13.03091871    15
CTC1_L_00383003-01
1 57162U 22478LA  26070.40835648  .00000000  00000+0  00000-0 0  9996
2 57162  40.0000  24.0000 0000000   0.0000  24.0000 13.03091871    13
CTC1_L_00383003-02
1 57163U 23198AA  26070.40835648  .00000000  00000+0  00000-0 0  9997
2 57163  40.0000  24.0000 0000000   0.0000 114.0000 13.03091871    14
CTC1_L_00383003-03
1 57164U 26647JV  26070.40835648  .00000000  00000+0  00000-0 0  9990
2 57164  40.0000  24.0000 0000000   0.0000 204.0000 13.03091871    15
CTC1_L_00383003-04
1 57165U 25925UP  26070.40835648  .00000000  00000+0  00000-0 0  9999
2 57165  40.0000  24.0000 0000000   0.0000 294.0000 13.03091871    15
CTC1_L_00383004-01
1 57166U 26459FB  26070.40835648  .00000000  00000+0  00000-0 0  9993
2 57166  40.0000  36.0000 0000000   0.0000  36.0000 13.03091871    13
CTC1_L_00383004-02
1 57167U 24304WX  26070.40835648  .00000000  00000+0  00000-0 0  9991
2 57167  40.0000  36.0000 0000000   0.0000 126.0000 13.03091871    14
CTC1_L_00383004-03
1 57168U 24337FH  26070.40835648  .00000000  00000+0  00000-0 0  9998
2 57168  40.0000  36.0000 0000000   0.0000 216.0000 13.03091871    15
CTC1_L_00383004-04
1 57169U 22294ST  26070.40835648  .00000000  00000+0  00000-0 0  9999
2 57169  40.0000  36.0000 0000000   0.0000 306.0000 13.03091871    16
CTC1_L_00383005-01
1 57170U 26681VZ  26070.40835648  .00000000  00000+0  00000-0 0  9995
2 57170  40.0000  48.0000 0000000   0.0000  48.0000 13.03091871    14
CTC1_L_00383005-02
1 57171U 22164P   26070.40835648  .00000000  00000+0  00000-0 0  9998
2 57171  40.0000  48.0000 0000000   0.0000 138.0000 13.03091871    15
CTC1_L_00383005-03
1 57172U 26576ZN  26070.40835648  .00000000  00000+0  00000-0 0  9990
2 57172  40.0000  48.0000 0000000   0.0000 228.0000 13.03091871    16
CTC1_L_00383005-04
1 57173U 26366ZA  26070.40835648  .00000000  00000+0  00000-0 0  9998
2 57173  40.0000  48.0000 0000000   0.0000 318.0000 13.03091871    17
CTC1_L_00383006-01
1 57174U 22230IZ  26070.40835648  .00000000  00000+0  00000-0 0  9995
2 57174  40.0000  60.0000 0000000   0.0000  60.0000 13.03091871    16
CTC1_L_00383006-02
1 57175U 25012NL  26070.40835648  .00000000  00000+0  00000-0 0  9997
2 57175  40.0000  60.0000 0000000   0.0000 150.0000 13.03091871    17
CTC1_L_00383006-03
1 57176U 22871IZ  26070.40835648  .00000000  00000+0  00000-0 0  9998
2 57176  40.0000  60.0000 0000000   0.0000 240.0000 13.03091871    18
CTC1_L_00383006-04
1 57177U 25256I   26070.40835648  .00000000  00000+0  00000-0 0  9999
2 57177  40.0000  60.0000 0000000   0.0000 330.0000 13.03091871    19
CTC1_L_00383007-01
1 57178U 22865G   26070.40835648  .00000000  00000+0  00000-0 0  9993
2 57178  40.0000  72.0000 0000000   0.0000  72.0000 13.03091871    16
CTC1_L_00383007-02
1 57179U 25304EO  26070.40835648  .00000000  00000+0  00000-0 0  9995
2 57179  40.0000  72.0000 0000000   0.0000 162.0000 13.03091871    17
CTC1_L_00383007-03
1 57180U 22252BN  26070.40835648  .00000000  00000+0  00000-0 0  9996
2 57180  40.0000  72.0000 0000000   0.0000 252.0000 13.03091871    19
CTC1_L_00383007-04
1 57181U 24231AA  26070.40835648  .00000000  00000+0  00000-0 0  9996
2 57181  40.0000  72.0000 0000000   0.0000 342.0000 13.03091871    10
CTC1_L_00383008-01
1 57182U 23339BD  26070.40835648  .00000000  00000+0  00000-0 0  9995
2 57182  40.0000  84.0000 0000000   0.0000  84.0000 13.03091871    17
CTC1_L_00383008-02
1 57183U 25294XO  26070.40835648  .00000000  00000+0  00000-0 0  9998
2 57183  40.0000  84.0000 0000000   0.0000 174.0000 13.03091871    18
CTC1_L_00383008-03
1 57184U 26024LH  26070.40835648  .00000000  00000+0  00000-0 0  9991
2 57184  40.0000  84.0000 0000000   0.0000 264.0000 13.03091871    19
CTC1_L_00383008-04
1 57185U 25887WA  26070.40835648  .00000000  00000+0  00000-0 0  9998
2 57185  40.0000  84.0000 0000000   0.0000 354.0000 13.03091871    10
CTC1_L_00383009-01
1 57186U 22180PC  26070.40835648  .00000000  00000+0  00000-0 0  9992
2 57186  40.0000  96.0000 0000000   0.0000  96.0000 13.03091871    17
CTC1_L_00383009-02
1 57187U 23414JQ  26070.40835648  .00000000  00000+0  00000-0 0  9994
2 57187  40.0000  96.0000 0000000   0.0000 186.0000 13.03091871    18
CTC1_L_00383009-03
1 57188U 26142CL  26070.40835648  .00000000  00000+0  00000-0 0  9996
2 57188  40.0000  96.0000 0000000   0.0000 276.0000 13.03091871    19
CTC1_L_00383009-04
1 57189U 24673ZY  26070.40835648  .00000000  00000+0  00000-0 0  9994
2 57189  40.0000  96.0000 0000000   0.0000   6.0000 13.03091871    11
CTC1_L_00383010-01
1 57190U 26761IJ  26070.40835648  .00000000  00000+0  00000-0 0  9996
2 57190  40.0000 108.0000 0000000   0.0000 108.0000 13.03091871    10
CTC1_L_00383010-02
1 57191U 26594UP  26070.40835648  .00000000  00000+0  00000-0 0  9991
2 57191  40.0000 108.0000 0000000   0.0000 198.0000 13.03091871    10
CTC1_L_00383010-03
1 57192U 26733KG  26070.40835648  .00000000  00000+0  00000-0 0  9997
2 57192  40.0000 108.0000 0000000   0.0000 288.0000 13.03091871    11
CTC1_L_00383010-04
1 57193U 24315PT  26070.40835648  .00000000  00000+0  00000-0 0  9992
2 57193  40.0000 108.0000 0000000   0.0000  18.0000 13.03091871    13
CTC1_L_00383011-01
1 57194U 25379EN  26070.40835648  .00000000  00000+0  00000-0 0  9994
2 57194  40.0000 120.0000 0000000   0.0000 120.0000 13.03091871    12
CTC1_L_00383011-02
1 57195U 25330WP  26070.40835648  .00000000  00000+0  00000-0 0  9992
2 57195  40.0000 120.0000 0000000   0.0000 210.0000 13.03091871    13
CTC1_L_00383011-03
1 57196U 24172TX  26070.40835648  .00000000  00000+0  00000-0 0  9996
2 57196  40.0000 120.0000 0000000   0.0000 300.0000 13.03091871    14
CTC1_L_00383011-04
1 57197U 26024K   26070.40835648  .00000000  00000+0  00000-0 0  9995
2 57197  40.0000 120.0000 0000000   0.0000  30.0000 13.03091871    15
CTC1_L_00383012-01
1 57198U 24274OF  26070.40835648  .00000000  00000+0  00000-0 0  9991
2 57198  40.0000 132.0000 0000000   0.0000 132.0000 13.03091871    12
CTC1_L_00383012-02
1 57199U 23424WZ  26070.40835648  .00000000  00000+0  00000-0 0  9998
2 57199  40.0000 132.0000 0000000   0.0000 222.0000 13.03091871    13
CTC1_L_00383012-03
1 57200U 25718CA  26070.40835648  .00000000  00000+0  00000-0 0  9999
2 57200  40.0000 132.0000 0000000   0.0000 312.0000 13.03091871    16
CTC1_L_00383012-04
1 57201U 26457SJ  26070.40835648  .00000000  00000+0  00000-0 0  9991
2 57201  40.0000 132.0000 0000000   0.0000  42.0000 13.03091871    17
CTC1_L_00383013-01
1 57202U 22472G   26070.40835648  .00000000  00000+0  00000-0 0  9995
2 57202  40.0000 144.0000 0000000   0.0000 144.0000 13.03091871    14
CTC1_L_00383013-02
1 57203U 23475JU  26070.40835648  .00000000  00000+0  00000-0 0  9990
2 57203  40.0000 144.0000 0000000   0.0000 234.0000 13.03091871    15
CTC1_L_00383013-03
1 57204U 24790VQ  26070.40835648  .00000000  00000+0  00000-0 0  9992
2 57204  40.0000 144.0000 0000000   0.0000 324.0000 13.03091871    16
CTC1_L_00383013-04
1 57205U 26801SE  26070.40835648  .00000000  00000+0  00000-0 0  9998
2 57205  40.0000 144.0000 0000000   0.0000  54.0000 13.03091871    17
CTC1_L_00383014-01
1 57206U 26788A   26070.40835648  .00000000  00000+0  00000-0 0  9993
2 57206  40.0000 156.0000 0000000   0.0000 156.0000 13.03091871    14
CTC1_L_00383014-02
1 57207U 23177RJ  26070.40835648  .00000000  00000+0  00000-0 0  9993
2 57207  40.0000 156.0000 0000000   0.0000 246.0000 13.03091871    15
CTC1_L_00383014-03
1 57208U 24114UD  26070.40835648  .00000000  00000+0  00000-0 0  9996
2 57208  40.0000 156.0000 0000000   0.0000 336.0000 13.03091871    16
CTC1_L_00383014-04
1 57209U 23698CQ  26070.40835648  .00000000  00000+0  00000-0 0  9993
2 57209  40.0000 156.0000 0000000   0.0000  66.0000 13.03091871    17
CTC1_L_00383015-01
1 57210U 25796WY  26070.40835648  .00000000  00000+0  00000-0 0  9996
2 57210  40.0000 168.0000 0000000   0.0000 168.0000 13.03091871    15
CTC1_L_00383015-02
1 57211U 22752MT  26070.40835648  .00000000  00000+0  00000-0 0  9996
2 57211  40.0000 168.0000 0000000   0.0000 258.0000 13.03091871    16
CTC1_L_00383015-03
1 57212U 22846PT  26070.40835648  .00000000  00000+0  00000-0 0  9991
2 57212  40.0000 168.0000 0000000   0.0000 348.0000 13.03091871    17
CTC1_L_00383015-04
1 57213U 23186I   26070.40835648  .00000000  00000+0  00000-0 0  9990
2 57213  40.0000 168.0000 0000000   0.0000  78.0000 13.03091871    18
CTC1_L_00383016-01
1 57214U 23373O   26070.40835648  .00000000  00000+0  00000-0 0  9999
2 57214  40.0000 180.0000 0000000   0.0000 180.0000 13.03091871    17
CTC1_L_00383016-02
1 57215U 22227WS  26070.40835648  .00000000  00000+0  00000-0 0  9997
2 57215  40.0000 180.0000 0000000   0.0000 270.0000 13.03091871    18
